TROLL                   
1 62658U 25009BB  26068.22522958  .00013174  00000+0  48220-3 0  9994
2 62658  97.3932 150.7169 0001816  59.1850 300.9568 15.28164315118170
STARLINK-32876          
1 63151U 25043V   26068.20620476  .00035523  00000+0  12931-2 0  9994
2 63151  43.0031  18.5061 0002253 243.8999 116.1621 15.27605565 57299
